{
  "type": "FeatureCollection",
  "features": [
    {
      "type": "Feature",
      "properties": {
        "norad_id": 40545,
        "name": "GSAT0204 (GALILEO 8)",
        "group": "gnss",
        "lat": 5.2842008083076015,
        "lon": 163.51514138518243,
        "alt_km": 23220.45693919646,
        "timestamp": "2025-12-02T15:49:07.431176+00:00",
        "meta_object_name": "GSAT0204 (GALILEO 8)",
        "meta_object_id": "2015-017B",
        "meta_epoch": "2025-12-01T18:56:42.196992",
        "meta_mean_motion": 1.70475405,
        "meta_eccentricity": 0.00062658,
        "meta_inclination": 56.854,
        "meta_ra_of_asc_node": 346.9967,
        "meta_arg_of_pericenter": 260.0885,
        "meta_mean_anomaly": 99.8817,
        "meta_ephemeris_type": 0,
        "meta_classification_type": "U",
        "meta_norad_cat_id": 40545,
        "meta_element_set_no": 999,
        "meta_rev_at_epoch": 2888,
        "meta_bstar": 0,
        "meta_mean_motion_dot": -6.1e-07,
        "meta_mean_motion_ddot": 0,
        "tle_line1": "1 40545U 15017B   25335.78937728 -.00000061  00000+0  00000+0 0  9997",
        "tle_line2": "2 40545  56.8540 346.9967 0006265 260.0885  99.8817  1.70475405 28881"
      },
      "geometry": {
        "type": "Point",
        "coordinates": [
          163.51514138518243,
          5.2842008083076015
        ]
      }
    },
    {
      "type": "Feature",
      "properties": {
        "norad_id": 40730,
        "name": "GPS BIIF-10 (PRN 08)",
        "group": "gnss",
        "lat": -54.060342526330004,
        "lon": -170.0327865065083,
        "alt_km": 20302.53491255488,
        "timestamp": "2025-12-02T15:49:07.431187+00:00",
        "meta_object_name": "GPS BIIF-10 (PRN 08)",
        "meta_object_id": "2015-033A",
        "meta_epoch": "2025-12-01T06:48:01.041696",
        "meta_mean_motion": 2.0056609,
        "meta_eccentricity": 0.01102372,
        "meta_inclination": 54.1408,
        "meta_ra_of_asc_node": 275.2444,
        "meta_arg_of_pericenter": 26.5253,
        "meta_mean_anomaly": 334.0329,
        "meta_ephemeris_type": 0,
        "meta_classification_type": "U",
        "meta_norad_cat_id": 40730,
        "meta_element_set_no": 999,
        "meta_rev_at_epoch": 7602,
        "meta_bstar": 0,
        "meta_mean_motion_dot": -3.9e-07,
        "meta_mean_motion_ddot": 0,
        "tle_line1": "1 40730U 15033A   25335.28334539 -.00000039  00000+0  00000+0 0  9992",
        "tle_line2": "2 40730  54.1408 275.2444 0110237  26.5253 334.0329  2.00566090 76020"
      },
      "geometry": {
        "type": "Point",
        "coordinates": [
          -170.0327865065083,
          -54.060342526330004
        ]
      }
    },
    {
      "type": "Feature",
      "properties": {
        "norad_id": 40748,
        "name": "BEIDOU-3S M2S (C58)",
        "group": "gnss",
        "lat": -54.84361579594628,
        "lon": -148.09162193322203,
        "alt_km": 21499.200643934844,
        "timestamp": "2025-12-02T15:49:07.431198+00:00",
        "meta_object_name": "BEIDOU-3S M2S (C58)",
        "meta_object_id": "2015-037A",
        "meta_epoch": "2025-12-01T04:31:01.292160",
        "meta_mean_motion": 1.86229002,
        "meta_eccentricity": 0.0012493,
        "meta_inclination": 55.0491,
        "meta_ra_of_asc_node": 308.8604,
        "meta_arg_of_pericenter": 267.0141,
        "meta_mean_anomaly": 92.8367,
        "meta_ephemeris_type": 0,
        "meta_classification_type": "U",
        "meta_norad_cat_id": 40748,
        "meta_element_set_no": 999,
        "meta_rev_at_epoch": 7043,
        "meta_bstar": 0,
        "meta_mean_motion_dot": -5.6e-07,
        "meta_mean_motion_ddot": 0,
        "tle_line1": "1 40748U 15037A   25335.18820940 -.00000056  00000+0  00000+0 0  9999",
        "tle_line2": "2 40748  55.0491 308.8604 0012493 267.0141  92.8367  1.86229002 70437"
      },
      "geometry": {
        "type": "Point",
        "coordinates": [
          -148.09162193322203,
          -54.84361579594628
        ]
      }
    },
    {
      "type": "Feature",
      "properties": {
        "norad_id": 40749,
        "name": "BEIDOU-3S M1S (C57)",
        "group": "gnss",
        "lat": 49.91349912571147,
        "lon": 72.596734118868,
        "alt_km": 21523.91508063031,
        "timestamp": "2025-12-02T15:49:07.431212+00:00",
        "meta_object_name": "BEIDOU-3S M1S (C57)",
        "meta_object_id": "2015-037B",
        "meta_epoch": "2025-11-26T01:13:29.678016",
        "meta_mean_motion": 1.8625392,
        "meta_eccentricity": 0.00032681,
        "meta_inclination": 55.0504,
        "meta_ra_of_asc_node": 309.0266,
        "meta_arg_of_pericenter": 354.4635,
        "meta_mean_anomaly": 5.5327,
        "meta_ephemeris_type": 0,
        "meta_classification_type": "U",
        "meta_norad_cat_id": 40749,
        "meta_element_set_no": 999,
        "meta_rev_at_epoch": 7034,
        "meta_bstar": 0,
        "meta_mean_motion_dot": -4e-07,
        "meta_mean_motion_ddot": 0,
        "tle_line1": "1 40749U 15037B   25330.05103794 -.00000040  00000+0  00000+0 0  9995",
        "tle_line2": "2 40749  55.0504 309.0266 0003268 354.4635   5.5327  1.86253920 70342"
      },
      "geometry": {
        "type": "Point",
        "coordinates": [
          72.596734118868,
          49.91349912571147
        ]
      }
    },
    {
      "type": "Feature",
      "properties": {
        "norad_id": 40889,
        "name": "GSAT0205 (GALILEO 9)",
        "group": "gnss",
        "lat": -34.79931527577427,
        "lon": -162.04663677870278,
        "alt_km": 23224.437980108265,
        "timestamp": "2025-12-02T15:49:07.431239+00:00",
        "meta_object_name": "GSAT0205 (GALILEO 9)",
        "meta_object_id": "2015-045A",
        "meta_epoch": "2025-11-30T23:18:34.752384",
        "meta_mean_motion": 1.70472884,
        "meta_eccentricity": 0.00058923,
        "meta_inclination": 55.0077,
        "meta_ra_of_asc_node": 227.0837,
        "meta_arg_of_pericenter": 38.7902,
        "meta_mean_anomaly": 321.3287,
        "meta_ephemeris_type": 0,
        "meta_classification_type": "U",
        "meta_norad_cat_id": 40889,
        "meta_element_set_no": 999,
        "meta_rev_at_epoch": 6363,
        "meta_bstar": 0,
        "meta_mean_motion_dot": 3e-07,
        "meta_mean_motion_ddot": 0,
        "tle_line1": "1 40889U 15045A   25334.97123556  .00000030  00000+0  00000+0 0  9990",
        "tle_line2": "2 40889  55.0077 227.0837 0005892  38.7902 321.3287  1.70472884 63632"
      },
      "geometry": {
        "type": "Point",
        "coordinates": [
          -162.04663677870278,
          -34.79931527577427
        ]
      }
    },
    {
      "type": "Feature",
      "properties": {
        "norad_id": 40890,
        "name": "GSAT0206 (GALILEO 10)",
        "group": "gnss",
        "lat": -0.45767165768702395,
        "lon": 47.35350219115622,
        "alt_km": 23231.4681144461,
        "timestamp": "2025-12-02T15:49:07.431251+00:00",
        "meta_object_name": "GSAT0206 (GALILEO 10)",
        "meta_object_id": "2015-045B",
        "meta_epoch": "2025-12-01T18:40:58.746144",
        "meta_mean_motion": 1.70473031,
        "meta_eccentricity": 0.0003438,
        "meta_inclination": 55.0064,
        "meta_ra_of_asc_node": 227.0564,
        "meta_arg_of_pericenter": 30.2471,
        "meta_mean_anomaly": 329.8532,
        "meta_ephemeris_type": 0,
        "meta_classification_type": "U",
        "meta_norad_cat_id": 40890,
        "meta_element_set_no": 999,
        "meta_rev_at_epoch": 6367,
        "meta_bstar": 0,
        "meta_mean_motion_dot": 3.4e-07,
        "meta_mean_motion_ddot": 0,
        "tle_line1": "1 40890U 15045B   25335.77845771  .00000034  00000+0  00000+0 0  9995",
        "tle_line2": "2 40890  55.0064 227.0564 0003438  30.2471 329.8532  1.70473031 63674"
      },
      "geometry": {
        "type": "Point",
        "coordinates": [
          47.35350219115622,
          -0.45767165768702395
        ]
      }
    },
    {
      "type": "Feature",
      "properties": {
        "norad_id": 40938,
        "name": "BEIDOU-3S IGSO-2S (C56)",
        "group": "gnss",
        "lat": 26.881683951483964,
        "lon": 55.513676550413784,
        "alt_km": 35600.54750681227,
        "timestamp": "2025-12-02T15:49:07.431263+00:00",
        "meta_object_name": "BEIDOU-3S IGSO-2S (C56)",
        "meta_object_id": "2015-053A",
        "meta_epoch": "2025-11-30T14:22:32.938176",
        "meta_mean_motion": 1.00272475,
        "meta_eccentricity": 0.0061056,
        "meta_inclination": 49.5325,
        "meta_ra_of_asc_node": 261.1514,
        "meta_arg_of_pericenter": 188.8099,
        "meta_mean_anomaly": 291.5463,
        "meta_ephemeris_type": 0,
        "meta_classification_type": "U",
        "meta_norad_cat_id": 40938,
        "meta_element_set_no": 999,
        "meta_rev_at_epoch": 3736,
        "meta_bstar": 0,
        "meta_mean_motion_dot": -1.61e-06,
        "meta_mean_motion_ddot": 0,
        "tle_line1": "1 40938U 15053A   25334.59899234 -.00000161  00000+0  00000+0 0  9991",
        "tle_line2": "2 40938  49.5325 261.1514 0061056 188.8099 291.5463  1.00272475 37362"
      },
      "geometry": {
        "type": "Point",
        "coordinates": [
          55.513676550413784,
          26.881683951483964
        ]
      }
    }
  ]
}